OBJECT_NAME,OBJECT_ID,EPOCH,MEAN_MOTION,ECCENTRICITY,INCLINATION,RA_OF_ASC_NODE,ARG_OF_PERICENTER,MEAN_ANOMALY,EPHEMERIS_TYPE,CLASSIFICATION_TYPE,NORAD_CAT_ID,ELEMENT_SET_NO,REV_AT_EPOCH,BSTAR,MEAN_MOTION_DOT,MEAN_MOTION_DDOT
BEIDOU-3S IGSO-1S (C31),2015-019A,2026-07-02T19:12:21.705408,1.00680073,.00768606,49.1798,295.2769,219.1125,144.2493,0,U,40549,999,4123,0,-.19E-5,0
GPS BIIF-10 (PRN 08),2015-033A,2026-07-21T03:01:01.445952,2.00554586,.01154652,53.9569,265.6855,30.2918,330.4389,0,U,40730,999,8067,0,-.3E-6,0
BEIDOU-3S M2S (C58),2015-037A,2026-07-21T03:37:46.145856,1.86231934,.00095905,54.8385,300.8761,256.5762,103.3513,0,U,40748,999,7475,0,-.1E-5,0
BEIDOU-3S M1S (C57),2015-037B,2026-07-20T06:44:12.505056,1.86254901,.00026187,54.8358,300.8934,62.6171,297.4444,0,U,40749,999,7474,0,-.99E-6,0
GSAT0206 (GALILEO 10),2015-045B,2026-07-20T07:20:29.624352,1.70473732,.0002088,54.9380,220.6893,330.0131,30.0144,0,U,40890,999,6760,0,.58E-6,0
BEIDOU-3S IGSO-2S (C56),2015-053A,2026-07-21T15:13:42.927168,1.00252177,.00659589,49.1672,258.3682,193.7574,168.5675,0,U,40938,999,3970,0,-.98E-6,0
GPS BIIF-11 (PRN 10),2015-062A,2026-07-20T16:21:37.268640,2.00567122,.01130898,56.9821,29.5218,230.8511,128.1725,0,U,41019,999,7850,0,-.86E-6,0
GSAT-15 (GAGAN/PRN 139),2015-065A,2026-07-21T15:14:05.391168,1.00271684,.00035868,0.1012,263.4124,178.5785,179.4288,0,U,41028,999,3914,0,-.256E-5,0
GSAT0209 (GALILEO 12),2015-079A,2026-07-19T21:18:19.364832,1.70473671,.00046186,55.8457,100.3644,358.4074,1.6290,0,U,41174,999,6533,0,-.39E-6,0
GSAT0208 (GALILEO 11),2015-079B,2026-07-21T06:44:57.642144,1.70473614,.00042549,55.8450,100.3230,357.2221,2.8108,0,U,41175,999,6577,0,-.45E-6,0
IRNSS-1E,2016-003A,2026-07-21T00:43:29.481312,1.00275296,.0019282,33.3051,59.2585,176.3074,185.9195,0,U,41241,999,3842,0,-.317E-5,0
GPS BIIF-12 (PRN 32),2016-007A,2026-07-20T06:34:51.882240,2.00575239,.00966486,55.5443,88.1473,247.5757,111.4487,0,U,41328,999,7650,0,-.55E-6,0
COSMOS 2514 (751),2016-008A,2026-07-20T14:27:49.472352,2.13102623,.00124841,64.9994,311.8597,201.8566,158.1123,0,U,41330,999,8133,0,-.85E-6,0
BEIDOU-2 IGSO-6 (C13),2016-021A,2026-06-26T02:38:38.671584,1.00258926,.0057558,60.2385,37.9495,231.0163,137.2672,0,U,41434,999,3757,0,-.145E-5,0
IRNSS-1G,2016-027A,2026-07-21T15:24:27.682848,1.00266283,.00057705,5.2785,96.6775,13.4143,190.0375,0,U,41469,999,3752,0,-.337E-5,0
GSAT0211 (GALILEO 14),2016-030A,2026-07-20T05:33:31.703616,1.70473740,.00034438,55.0891,220.7852,318.9851,41.0285,0,U,41549,999,6323,0,.57E-6,0
GSAT0210 (GALILEO 13),2016-030B,2026-07-21T01:48:38.297664,1.70473925,.00047147,55.0872,220.7604,246.6684,113.3235,0,U,41550,999,6324,0,.63E-6,0
BEIDOU-2 G7 (C03),2016-037A,2026-07-21T15:18:58.209408,1.00270621,.00061113,1.8037,69.5591,1.2711,208.8618,0,U,41586,999,723,0,-.353E-5,0
EUTELSAT 117 WEST B (WAAS/PRN 131),2016-038B,2026-07-21T14:14:06.883872,1.00272106,.00001683,0.0032,121.2444,52.0973,222.5439,0,U,41589,999,3700,0,-.1E-6,0
GSAT0207 (GALILEO 15),2016-069A,2026-07-20T04:20:33.093312,1.70473575,.00044775,55.5174,100.1729,340.2934,19.7267,0,U,41859,999,5996,0,-.41E-6,0
GSAT0212 (GALILEO 16),2016-069B,2026-07-21T04:58:48.525312,1.70473851,.00044069,55.5158,100.1394,15.8741,344.1750,0,U,41860,999,6023,0,-.46E-6,0
GSAT0213 (GALILEO 17),2016-069C,2026-07-20T23:42:50.752224,1.70474276,.00032806,55.5169,100.1530,326.3606,33.6543,0,U,41861,999,6009,0,-.45E-6,0
GSAT0214 (GALILEO 18),2016-069D,2026-07-21T03:13:28.463808,1.70473784,.00031418,55.5164,100.1420,335.1519,24.8684,0,U,41862,999,6022,0,-.45E-6,0
SES-15 (WAAS/PRN 133),2017-026A,2026-07-21T06:41:38.768352,1.00272289,.00010248,0.0290,317.0918,186.3345,126.8704,0,U,42709,999,777,0,.61E-6,0
QZS-2 (QZSS/PRN 194),2017-028A,2026-07-20T11:09:48.084768,1.00275408,.07568495,39.3796,242.6632,269.6615,95.8478,0,U,42738,999,796,0,-.138E-5,0
QZS-3 (QZSS/PRN 199),2017-048A,2026-07-21T15:23:42.753984,1.00269610,.00028074,0.0593,205.0600,281.7199,170.5669,0,U,42917,999,3260,0,-.346E-5,0
COSMOS 2522 (752),2017-055A,2026-07-20T10:33:59.590656,2.13101801,.00108849,64.0809,190.7524,240.6370,119.2556,0,U,42939,999,6868,0,.84E-6,0
QZS-4 (QZSS/PRN 195),2017-062A,2026-07-21T06:10:27.954336,1.00289434,.07469394,40.0879,343.0509,268.6822,279.3148,0,U,42965,999,3214,0,-.358E-5,0
BEIDOU-3 M1 (C19),2017-069A,2026-07-20T23:04:14.085696,1.86231306,.0008832,56.7221,61.9715,327.7311,32.2769,0,U,43001,999,5923,0,-.79E-6,0
BEIDOU-3 M2 (C20),2017-069B,2026-07-20T21:36:08.493120,1.86230310,.00078073,56.7212,62.0097,355.9026,4.1531,0,U,43002,999,5922,0,-.79E-6,0
GSAT0215 (GALILEO 19),2017-079A,2026-07-21T14:58:16.716576,1.70474444,.00037652,55.0665,220.5584,269.3113,90.6885,0,U,43055,999,5357,0,.67E-6,0
